<?xml version="1.0" encoding="UTF-8"?>
<ndm xmlns:xsi="http://www.w3.org/2001/XMLSchema-instance" xsi:noNamespaceSchemaLocation="https://sanaregistry.org/r/ndmxml_unqualified/ndmxml-2.0.0-master-2.0.xsd">
<omm id="CCSDS_OMM_VERS" version="2.0">
<header><CREATION_DATE/><ORIGINATOR/></header><body><segment><metadata><OBJECT_NAME>KUIPER-00089</OBJECT_NAME><OBJECT_ID>2025-151U</OBJECT_ID><CENTER_NAME>EARTH</CENTER_NAME><REF_FRAME>TEME</REF_FRAME><TIME_SYSTEM>UTC</TIME_SYSTEM><MEAN_ELEMENT_THEORY>SGP4</MEAN_ELEMENT_THEORY></metadata><data><meanElements><EPOCH>2025-10-08T09:07:42.003264</EPOCH><MEAN_MOTION>15.18238820</MEAN_MOTION><ECCENTRICITY>.0006071</ECCENTRICITY><INCLINATION>51.8878</INCLINATION><RA_OF_ASC_NODE>243.1343</RA_OF_ASC_NODE><ARG_OF_PERICENTER>85.4042</ARG_OF_PERICENTER><MEAN_ANOMALY>274.7630</MEAN_ANOMALY></meanElements><tleParameters><EPHEMERIS_TYPE>0</EPHEMERIS_TYPE><CLASSIFICATION_TYPE>U</CLASSIFICATION_TYPE><NORAD_CAT_ID>64834</NORAD_CAT_ID><ELEMENT_SET_NO>999</ELEMENT_SET_NO><REV_AT_EPOCH>1290</REV_AT_EPOCH><BSTAR>-.63599E-2</BSTAR><MEAN_MOTION_DOT>-.129973E-2</MEAN_MOTION_DOT><MEAN_MOTION_DDOT>0</MEAN_MOTION_DDOT></tleParameters></data></segment></body></omm>
<omm id="CCSDS_OMM_VERS" version="2.0">
<header><CREATION_DATE/><ORIGINATOR/></header><body><segment><metadata><OBJECT_NAME>KUIPER-00090</OBJECT_NAME><OBJECT_ID>2025-151V</OBJECT_ID><CENTER_NAME>EARTH</CENTER_NAME><REF_FRAME>TEME</REF_FRAME><TIME_SYSTEM>UTC</TIME_SYSTEM><MEAN_ELEMENT_THEORY>SGP4</MEAN_ELEMENT_THEORY></metadata><data><meanElements><EPOCH>2025-10-08T08:07:54.034176</EPOCH><MEAN_MOTION>15.33295998</MEAN_MOTION><ECCENTRICITY>.000942</ECCENTRICITY><INCLINATION>51.8785</INCLINATION><RA_OF_ASC_NODE>242.0865</RA_OF_ASC_NODE><ARG_OF_PERICENTER>108.5408</ARG_OF_PERICENTER><MEAN_ANOMALY>251.6601</MEAN_ANOMALY></meanElements><tleParameters><EPHEMERIS_TYPE>0</EPHEMERIS_TYPE><CLASSIFICATION_TYPE>U</CLASSIFICATION_TYPE><NORAD_CAT_ID>64835</NORAD_CAT_ID><ELEMENT_SET_NO>999</ELEMENT_SET_NO><REV_AT_EPOCH>1291</REV_AT_EPOCH><BSTAR>.55781E-3</BSTAR><MEAN_MOTION_DOT>.17906E-3</MEAN_MOTION_DOT><MEAN_MOTION_DDOT>0</MEAN_MOTION_DDOT></tleParameters></data></segment></body></omm>
<omm id="CCSDS_OMM_VERS" version="2.0">
<header><CREATION_DATE/><ORIGINATOR/></header><body><segment><metadata><OBJECT_NAME>KUIPER-00091</OBJECT_NAME><OBJECT_ID>2025-151W</OBJECT_ID><CENTER_NAME>EARTH</CENTER_NAME><REF_FRAME>TEME</REF_FRAME><TIME_SYSTEM>UTC</TIME_SYSTEM><MEAN_ELEMENT_THEORY>SGP4</MEAN_ELEMENT_THEORY></metadata><data><meanElements><EPOCH>2025-10-08T09:26:50.617824</EPOCH><MEAN_MOTION>15.21820180</MEAN_MOTION><ECCENTRICITY>.0008613</ECCENTRICITY><INCLINATION>51.8812</INCLINATION><RA_OF_ASC_NODE>242.3761</RA_OF_ASC_NODE><ARG_OF_PERICENTER>107.4961</ARG_OF_PERICENTER><MEAN_ANOMALY>252.6961</MEAN_ANOMALY></meanElements><tleParameters><EPHEMERIS_TYPE>0</EPHEMERIS_TYPE><CLASSIFICATION_TYPE>U</CLASSIFICATION_TYPE><NORAD_CAT_ID>64836</NORAD_CAT_ID><ELEMENT_SET_NO>999</ELEMENT_SET_NO><REV_AT_EPOCH>1291</REV_AT_EPOCH><BSTAR>-.93915E-2</BSTAR><MEAN_MOTION_DOT>-.210715E-2</MEAN_MOTION_DOT><MEAN_MOTION_DDOT>0</MEAN_MOTION_DDOT></tleParameters></data></segment></body></omm>
<omm id="CCSDS_OMM_VERS" version="2.0">
<header><CREATION_DATE/><ORIGINATOR/></header><body><segment><metadata><OBJECT_NAME>KUIPER-00092</OBJECT_NAME><OBJECT_ID>2025-151X</OBJECT_ID><CENTER_NAME>EARTH</CENTER_NAME><REF_FRAME>TEME</REF_FRAME><TIME_SYSTEM>UTC</TIME_SYSTEM><MEAN_ELEMENT_THEORY>SGP4</MEAN_ELEMENT_THEORY></metadata><data><meanElements><EPOCH>2025-10-08T12:00:02.000160</EPOCH><MEAN_MOTION>15.02718088</MEAN_MOTION><ECCENTRICITY>.0008534</ECCENTRICITY><INCLINATION>51.9149</INCLINATION><RA_OF_ASC_NODE>244.8771</RA_OF_ASC_NODE><ARG_OF_PERICENTER>84.2292</ARG_OF_PERICENTER><MEAN_ANOMALY>166.2642</MEAN_ANOMALY></meanElements><tleParameters><EPHEMERIS_TYPE>0</EPHEMERIS_TYPE><CLASSIFICATION_TYPE>U</CLASSIFICATION_TYPE><NORAD_CAT_ID>64837</NORAD_CAT_ID><ELEMENT_SET_NO>999</ELEMENT_SET_NO><REV_AT_EPOCH>549</REV_AT_EPOCH><BSTAR>-.75116E-1</BSTAR><MEAN_MOTION_DOT>-.937384E-2</MEAN_MOTION_DOT><MEAN_MOTION_DDOT>0</MEAN_MOTION_DDOT></tleParameters></data></segment></body></omm>
<omm id="CCSDS_OMM_VERS" version="2.0">
<header><CREATION_DATE/><ORIGINATOR/></header><body><segment><metadata><OBJECT_NAME>KUIPER-00093</OBJECT_NAME><OBJECT_ID>2025-151Y</OBJECT_ID><CENTER_NAME>EARTH</CENTER_NAME><REF_FRAME>TEME</REF_FRAME><TIME_SYSTEM>UTC</TIME_SYSTEM><MEAN_ELEMENT_THEORY>SGP4</MEAN_ELEMENT_THEORY></metadata><data><meanElements><EPOCH>2025-10-08T12:00:02.000160</EPOCH><MEAN_MOTION>14.94372069</MEAN_MOTION><ECCENTRICITY>.0015044</ECCENTRICITY><INCLINATION>51.8949</INCLINATION><RA_OF_ASC_NODE>246.6883</RA_OF_ASC_NODE><ARG_OF_PERICENTER>100.9319</ARG_OF_PERICENTER><MEAN_ANOMALY>211.6153</MEAN_ANOMALY></meanElements><tleParameters><EPHEMERIS_TYPE>0</EPHEMERIS_TYPE><CLASSIFICATION_TYPE>U</CLASSIFICATION_TYPE><NORAD_CAT_ID>64838</NORAD_CAT_ID><ELEMENT_SET_NO>999</ELEMENT_SET_NO><REV_AT_EPOCH>526</REV_AT_EPOCH><BSTAR>-.12314E+0</BSTAR><MEAN_MOTION_DOT>-.1242542E-1</MEAN_MOTION_DOT><MEAN_MOTION_DDOT>0</MEAN_MOTION_DDOT></tleParameters></data></segment></body></omm>
<omm id="CCSDS_OMM_VERS" version="2.0">
<header><CREATION_DATE/><ORIGINATOR/></header><body><segment><metadata><OBJECT_NAME>KUIPER-00094</OBJECT_NAME><OBJECT_ID>2025-151Z</OBJECT_ID><CENTER_NAME>EARTH</CENTER_NAME><REF_FRAME>TEME</REF_FRAME><TIME_SYSTEM>UTC</TIME_SYSTEM><MEAN_ELEMENT_THEORY>SGP4</MEAN_ELEMENT_THEORY></metadata><data><meanElements><EPOCH>2025-10-06T02:18:19.281600</EPOCH><MEAN_MOTION>15.19800549</MEAN_MOTION><ECCENTRICITY>.00090586</ECCENTRICITY><INCLINATION>51.8839</INCLINATION><RA_OF_ASC_NODE>253.9531</RA_OF_ASC_NODE><ARG_OF_PERICENTER>98.6005</ARG_OF_PERICENTER><MEAN_ANOMALY>261.6001</MEAN_ANOMALY></meanElements><tleParameters><EPHEMERIS_TYPE>0</EPHEMERIS_TYPE><CLASSIFICATION_TYPE>U</CLASSIFICATION_TYPE><NORAD_CAT_ID>64839</NORAD_CAT_ID><ELEMENT_SET_NO>999</ELEMENT_SET_NO><REV_AT_EPOCH>1255</REV_AT_EPOCH><BSTAR>.16359128E-2</BSTAR><MEAN_MOTION_DOT>.35381E-3</MEAN_MOTION_DOT><MEAN_MOTION_DDOT>0</MEAN_MOTION_DDOT></tleParameters></data></segment></body></omm>
<omm id="CCSDS_OMM_VERS" version="2.0">
<header><CREATION_DATE/><ORIGINATOR/></header><body><segment><metadata><OBJECT_NAME>KUIPER-00081</OBJECT_NAME><OBJECT_ID>2025-171A</OBJECT_ID><CENTER_NAME>EARTH</CENTER_NAME><REF_FRAME>TEME</REF_FRAME><TIME_SYSTEM>UTC</TIME_SYSTEM><MEAN_ELEMENT_THEORY>SGP4</MEAN_ELEMENT_THEORY></metadata><data><meanElements><EPOCH>2025-10-08T13:01:22.004256</EPOCH><MEAN_MOTION>15.37525301</MEAN_MOTION><ECCENTRICITY>.0004385</ECCENTRICITY><INCLINATION>51.8690</INCLINATION><RA_OF_ASC_NODE>124.5656</RA_OF_ASC_NODE><ARG_OF_PERICENTER>341.4374</ARG_OF_PERICENTER><MEAN_ANOMALY>18.6452</MEAN_ANOMALY></meanElements><tleParameters><EPHEMERIS_TYPE>0</EPHEMERIS_TYPE><CLASSIFICATION_TYPE>U</CLASSIFICATION_TYPE><NORAD_CAT_ID>65132</NORAD_CAT_ID><ELEMENT_SET_NO>999</ELEMENT_SET_NO><REV_AT_EPOCH>1017</REV_AT_EPOCH><BSTAR>.1162E-2</BSTAR><MEAN_MOTION_DOT>.43313E-3</MEAN_MOTION_DOT><MEAN_MOTION_DDOT>0</MEAN_MOTION_DDOT></tleParameters></data></segment></body></omm>
<omm id="CCSDS_OMM_VERS" version="2.0">
<header><CREATION_DATE/><ORIGINATOR/></header><body><segment><metadata><OBJECT_NAME>KUIPER-00088</OBJECT_NAME><OBJECT_ID>2025-171B</OBJECT_ID><CENTER_NAME>EARTH</CENTER_NAME><REF_FRAME>TEME</REF_FRAME><TIME_SYSTEM>UTC</TIME_SYSTEM><MEAN_ELEMENT_THEORY>SGP4</MEAN_ELEMENT_THEORY></metadata><data><meanElements><EPOCH>2025-10-08T12:00:02.000160</EPOCH><MEAN_MOTION>15.25645631</MEAN_MOTION><ECCENTRICITY>.0006804</ECCENTRICITY><INCLINATION>51.8801</INCLINATION><RA_OF_ASC_NODE>125.2416</RA_OF_ASC_NODE><ARG_OF_PERICENTER>317.9953</ARG_OF_PERICENTER><MEAN_ANOMALY>300.6592</MEAN_ANOMALY></meanElements><tleParameters><EPHEMERIS_TYPE>0</EPHEMERIS_TYPE><CLASSIFICATION_TYPE>U</CLASSIFICATION_TYPE><NORAD_CAT_ID>65133</NORAD_CAT_ID><ELEMENT_SET_NO>999</ELEMENT_SET_NO><REV_AT_EPOCH>539</REV_AT_EPOCH><BSTAR>-.15497E-1</BSTAR><MEAN_MOTION_DOT>-.380622E-2</MEAN_MOTION_DOT><MEAN_MOTION_DDOT>0</MEAN_MOTION_DDOT></tleParameters></data></segment></body></omm>

</ndm>
