KUIPER-00089            
1 64834U 25151U   25281.38034726 -.00129973  00000+0 -63599-2 0  9996
2 64834  51.8878 243.1343 0006071  85.4042 274.7630 15.18238820 12900
KUIPER-00090            
1 64835U 25151V   25281.33881984  .00017906  00000+0  55781-3 0  9993
2 64835  51.8785 242.0865 0009420 108.5408 251.6601 15.33295998 12918
KUIPER-00091            
1 64836U 25151W   25281.39364141 -.00210715  00000+0 -93915-2 0  9996
2 64836  51.8812 242.3761 0008613 107.4961 252.6961 15.21820180 12917
KUIPER-00092            
1 64837U 25151X   25281.50002315 -.00937384  00000+0 -75116-1 0  9992
2 64837  51.9149 244.8771 0008534  84.2292 166.2642 15.02718088  5494
KUIPER-00093            
1 64838U 25151Y   25281.50002315 -.01242542  00000+0 -12314+0 0  9998
2 64838  51.8949 246.6883 0015044 100.9319 211.6153 14.94372069  5268
KUIPER-00094            
1 64839U 25151Z   25279.09605650  .00035381  00000+0  16359-2 0  9995
2 64839  51.8839 253.9531 0009058  98.6005 261.6001 15.19800549 12555
KUIPER-00081            
1 65132U 25171A   25281.54261579  .00043313  00000+0  11620-2 0  9995
2 65132  51.8690 124.5656 0004385 341.4374  18.6452 15.37525301 10170
KUIPER-00088            
1 65133U 25171B   25281.50002315 -.00380622  00000+0 -15497-1 0  9997
2 65133  51.8801 125.2416 0006804 317.9953 300.6592 15.25645631  5399
